[Satellite]
VERSION=1.1
NAME=SES-3
NICKNAME=SES-3
TLE1=1 37748U 11035A   17185.62222095 -.00000107  00000-0  00000-0 0  9998
TLE2=2 37748   0.0378 299.4978 0002423 150.6834 313.6201  1.00274244 21828
